{"type": "FeatureCollection", "features": [ {"type": "Feature", "properties": {"norad_id": 34141, "name": "COSMOS 2251 DEB", "group": "cosmos-2251-debris", "lat": 64.0335060156702, "lon": 68.91043792152985, "alt_km": 700.116601329778, "timestamp": "2025-12-10T14:53:37.481846+00:00", "meta": {"OBJECT_NAME": "COSMOS 2251 DEB", "OBJECT_ID": "1993-036LN", "EPOCH": "2025-12-10T04:53:40.180992", "MEAN_MOTION": 14.49196042, "ECCENTRICITY": 0.00474937, "INCLINATION": 74.0111, "RA_OF_ASC_NODE": 33.6248, "ARG_OF_PERICENTER": 120.7597, "MEAN_ANOMALY": 296.2166, "EPHEMERIS_TYPE": 0, "CLASSIFICATION_TYPE": "U", "NORAD_CAT_ID": 34141, "ELEMENT_SET_NO": 999, "REV_AT_EPOCH": 87657, "BSTAR": 0.0022109926, "MEAN_MOTION_DOT": 8.524e-05, "MEAN_MOTION_DDOT": 0}, "tle": {"line1": "1 34141U 93036LN  25344.20393728  .00008524  00000+0  22110-2 0  9992", "line2": "2 34141  74.0111  33.6248 0047493 120.7597 296.2166 14.49196042876578"}}, "geometry": {"type": "Point", "coordinates": [68.91043792152985, 64.0335060156702]}}, {"type": "Feature", "properties": {"norad_id": 34270, "name": "COSMOS 2251 DEB", "group": "cosmos-2251-debris", "lat": -73.24471111922182, "lon": -157.05144445720384, "alt_km": 715.3953322661546, "timestamp": "2025-12-10T14:53:37.481855+00:00", "meta": {"OBJECT_NAME": "COSMOS 2251 DEB", "OBJECT_ID": "1993-036LQ", "EPOCH": "2025-12-10T07:08:11.300928", "MEAN_MOTION": 14.65134271, "ECCENTRICITY": 0.00477676, "INCLINATION": 74.0117, "RA_OF_ASC_NODE": 311.3334, "ARG_OF_PERICENTER": 104.8601, "MEAN_ANOMALY": 255.7865, "EPHEMERIS_TYPE": 0, "CLASSIFICATION_TYPE": "U", "NORAD_CAT_ID": 34270, "ELEMENT_SET_NO": 999, "REV_AT_EPOCH": 89060, "BSTAR": 0.00097856863, "MEAN_MOTION_DOT": 5.321e-05, "MEAN_MOTION_DDOT": 0}, "tle": {"line1": "1 34270U 93036LQ  25344.29735302  .00005321  00000+0  97857-3 0  9995", "line2": "2 34270  74.0117 311.3334 0047767 104.8601 255.7865 14.65134271890602"}}, "geometry": {"type": "Point", "coordinates": [-157.05144445720384, -73.24471111922182]}}, {"type": "Feature", "properties": {"norad_id": 34271, "name": "COSMOS 2251 DEB", "group": "cosmos-2251-debris", "lat": 11.37274369695686, "lon": 20.14104191032694, "alt_km": 659.864558265589, "timestamp": "2025-12-10T14:53:37.481864+00:00", "meta": {"OBJECT_NAME": "COSMOS 2251 DEB", "OBJECT_ID": "1993-036LR", "EPOCH": "2025-12-10T01:38:08.268000", "MEAN_MOTION": 14.70660652, "ECCENTRICITY": 0.00191497, "INCLINATION": 74.0199, "RA_OF_ASC_NODE": 204.5181, "ARG_OF_PERICENTER": 258.9597, "MEAN_ANOMALY": 225.7781, "EPHEMERIS_TYPE": 0, "CLASSIFICATION_TYPE": "U", "NORAD_CAT_ID": 34271, "ELEMENT_SET_NO": 999, "REV_AT_EPOCH": 88195, "BSTAR": 0.0025312797, "MEAN_MOTION_DOT": 0.00015458, "MEAN_MOTION_DDOT": 0}, "tle": {"line1": "1 34271U 93036LR  25344.06815125  .00015458  00000+0  25313-2 0  9992", "line2": "2 34271  74.0199 204.5181 0019149 258.9597 225.7781 14.70660652881959"}}, "geometry": {"type": "Point", "coordinates": [20.14104191032694, 11.37274369695686]}}, {"type": "Feature", "properties": {"norad_id": 34273, "name": "COSMOS 2251 DEB", "group": "cosmos-2251-debris", "lat": -71.45548977461439, "lon": -29.943976267879137, "alt_km": 688.9693683371497, "timestamp": "2025-12-10T14:53:37.481872+00:00", "meta": {"OBJECT_NAME": "COSMOS 2251 DEB", "OBJECT_ID": "1993-036LT", "EPOCH": "2025-12-09T18:43:28.848864", "MEAN_MOTION": 14.61179398, "ECCENTRICITY": 0.00142158, "INCLINATION": 74.0358, "RA_OF_ASC_NODE": 93.0859, "ARG_OF_PERICENTER": 218.7421, "MEAN_ANOMALY": 302.7844, "EPHEMERIS_TYPE": 0, "CLASSIFICATION_TYPE": "U", "NORAD_CAT_ID": 34273, "ELEMENT_SET_NO": 999, "REV_AT_EPOCH": 88578, "BSTAR": 0.0017333316, "MEAN_MOTION_DOT": 8.529e-05, "MEAN_MOTION_DDOT": 0}, "tle": {"line1": "1 34273U 93036LT  25343.78019501  .00008529  00000+0  17333-2 0  9990", "line2": "2 34273  74.0358  93.0859 0014215 218.7421 302.7844 14.61179398885783"}}, "geometry": {"type": "Point", "coordinates": [-29.943976267879137, -71.45548977461439]}}, {"type": "Feature", "properties": {"norad_id": 34274, "name": "COSMOS 2251 DEB", "group": "cosmos-2251-debris", "lat": -42.285864340142716, "lon": 57.52823308158579, "alt_km": 684.9103163120135, "timestamp": "2025-12-10T14:53:37.481881+00:00", "meta": {"OBJECT_NAME": "COSMOS 2251 DEB", "OBJECT_ID": "1993-036LU", "EPOCH": "2025-12-10T07:09:21.448224", "MEAN_MOTION": 14.64734199, "ECCENTRICITY": 0.00221803, "INCLINATION": 74.0045, "RA_OF_ASC_NODE": 73.2716, "ARG_OF_PERICENTER": 223.5449, "MEAN_ANOMALY": 192.4927, "EPHEMERIS_TYPE": 0, "CLASSIFICATION_TYPE": "U", "NORAD_CAT_ID": 34274, "ELEMENT_SET_NO": 999, "REV_AT_EPOCH": 88640, "BSTAR": 0.0019561434, "MEAN_MOTION_DOT": 0.00010443, "MEAN_MOTION_DDOT": 0}, "tle": {"line1": "1 34274U 93036LU  25344.29816491  .00010443  00000+0  19561-2 0  9994", "line2": "2 34274  74.0045  73.2716 0022180 223.5449 192.4927 14.64734199886408"}}, "geometry": {"type": "Point", "coordinates": [57.52823308158579, -42.285864340142716]}}, {"type": "Feature", "properties": {"norad_id": 34276, "name": "COSMOS 2251 DEB", "group": "cosmos-2251-debris", "lat": -46.772511681615285, "lon": 71.60478514263126, "alt_km": 704.4000353722122, "timestamp": "2025-12-10T14:53:37.481890+00:00", "meta": {"OBJECT_NAME": "COSMOS 2251 DEB", "OBJECT_ID": "1993-036LW", "EPOCH": "2025-12-10T06:59:05.144064", "MEAN_MOTION": 14.57200093, "ECCENTRICITY": 0.00226176, "INCLINATION": 74.0236, "RA_OF_ASC_NODE": 89.9763, "ARG_OF_PERICENTER": 236.7918, "MEAN_ANOMALY": 145.7165, "EPHEMERIS_TYPE": 0, "CLASSIFICATION_TYPE": "U", "NORAD_CAT_ID": 34276, "ELEMENT_SET_NO": 999, "REV_AT_EPOCH": 88557, "BSTAR": 0.0013214391, "MEAN_MOTION_DOT": 5.964e-05, "MEAN_MOTION_DDOT": 0}, "tle": {"line1": "1 34276U 93036LW  25344.29103176  .00005964  00000+0  13214-2 0  9996", "line2": "2 34276  74.0236  89.9763 0022617 236.7918 145.7165 14.57200093885575"}}, "geometry": {"type": "Point", "coordinates": [71.60478514263126, -46.772511681615285]}}, {"type": "Feature", "properties": {"norad_id": 34297, "name": "COSMOS 2251 DEB", "group": "cosmos-2251-debris", "lat": 56.46204764115099, "lon": 82.56105401310485, "alt_km": 770.5256024447017, "timestamp": "2025-12-10T14:53:37.481899+00:00", "meta": {"OBJECT_NAME": "COSMOS 2251 DEB", "OBJECT_ID": "1993-036MT", "EPOCH": "2025-12-10T06:31:32.180736", "MEAN_MOTION": 14.36625772, "ECCENTRICITY": 0.00171811, "INCLINATION": 74.0485, "RA_OF_ASC_NODE": 288.7638, "ARG_OF_PERICENTER": 357.8809, "MEAN_ANOMALY": 119.2388, "EPHEMERIS_TYPE": 0, "CLASSIFICATION_TYPE": "U", "NORAD_CAT_ID": 34297, "ELEMENT_SET_NO": 999, "REV_AT_EPOCH": 88029, "BSTAR": 0.00025294772, "MEAN_MOTION_DOT": 7.19e-06, "MEAN_MOTION_DDOT": 0}, "tle": {"line1": "1 34297U 93036MT  25344.27190024  .00000719  00000+0  25295-3 0  9991", "line2": "2 34297  74.0485 288.7638 0017181 357.8809 119.2388 14.36625772880297"}}, "geometry": {"type": "Point", "coordinates": [82.56105401310485, 56.46204764115099]}}, {"type": "Feature", "properties": {"norad_id": 34299, "name": "COSMOS 2251 DEB", "group": "cosmos-2251-debris", "lat": 61.517370195329704, "lon": 11.335411303180791, "alt_km": 341.78702155232713, "timestamp": "2025-12-10T14:53:37.481909+00:00", "meta": {"OBJECT_NAME": "COSMOS 2251 DEB", "OBJECT_ID": "1993-036MV", "EPOCH": "2025-12-10T00:50:06.200736", "MEAN_MOTION": 15.67854577, "ECCENTRICITY": 0.00216633, "INCLINATION": 73.9787, "RA_OF_ASC_NODE": 340.6799, "ARG_OF_PERICENTER": 57.7498, "MEAN_ANOMALY": 302.582, "EPHEMERIS_TYPE": 0, "CLASSIFICATION_TYPE": "U", "NORAD_CAT_ID": 34299, "ELEMENT_SET_NO": 999, "REV_AT_EPOCH": 88968, "BSTAR": 0.0071621565, "MEAN_MOTION_DOT": 0.00884858, "MEAN_MOTION_DDOT": 0}, "tle": {"line1": "1 34299U 93036MV  25344.03479399  .00884858  00000+0  71622-2 0  9990", "line2": "2 34299  73.9787 340.6799 0021663  57.7498 302.5820 15.67854577889680"}}, "geometry": {"type": "Point", "coordinates": [11.335411303180791, 61.517370195329704]}}, {"type": "Feature", "properties": {"norad_id": 34301, "name": "COSMOS 2251 DEB", "group": "cosmos-2251-debris", "lat": 57.18336326117637, "lon": -162.67531487709846, "alt_km": 617.8869143264283, "timestamp": "2025-12-10T14:53:37.481918+00:00", "meta": {"OBJECT_NAME": "COSMOS 2251 DEB", "OBJECT_ID": "1993-036MX", "EPOCH": "2025-12-09T00:30:20.035008", "MEAN_MOTION": 14.84254528, "ECCENTRICITY": 0.00117791, "INCLINATION": 74.0056, "RA_OF_ASC_NODE": 174.0909, "ARG_OF_PERICENTER": 233.226, "MEAN_ANOMALY": 284.4717, "EPHEMERIS_TYPE": 0, "CLASSIFICATION_TYPE": "U", "NORAD_CAT_ID": 34301, "ELEMENT_SET_NO": 999, "REV_AT_EPOCH": 88345, "BSTAR": 0.0032627811, "MEAN_MOTION_DOT": 0.00027446, "MEAN_MOTION_DDOT": 0}, "tle": {"line1": "1 34301U 93036MX  25343.02106522  .00027446  00000+0  32628-2 0  9992", "line2": "2 34301  74.0056 174.0909 0011779 233.2260 284.4717 14.84254528883452"}}, "geometry": {"type": "Point", "coordinates": [-162.67531487709846, 57.18336326117637]}}, {"type": "Feature", "properties": {"norad_id": 34302, "name": "COSMOS 2251 DEB", "group": "cosmos-2251-debris", "lat": 43.36605949827727, "lon": -68.07741669033274, "alt_km": 805.8111200205822, "timestamp": "2025-12-10T14:53:37.481928+00:00", "meta": {"OBJECT_NAME": "COSMOS 2251 DEB", "OBJECT_ID": "1993-036MY", "EPOCH": "2025-12-10T04:31:04.604736", "MEAN_MOTION": 14.39315587, "ECCENTRICITY": 0.00786153, "INCLINATION": 74.178, "RA_OF_ASC_NODE": 128.2492, "ARG_OF_PERICENTER": 344.224, "MEAN_ANOMALY": 70.5275, "EPHEMERIS_TYPE": 0, "CLASSIFICATION_TYPE": "U", "NORAD_CAT_ID": 34302, "ELEMENT_SET_NO": 999, "REV_AT_EPOCH": 87684, "BSTAR": 0.00094394839, "MEAN_MOTION_DOT": 3.015e-05, "MEAN_MOTION_DDOT": 0}, "tle": {"line1": "1 34302U 93036MY  25344.18824774  .00003015  00000+0  94395-3 0  9993", "line2": "2 34302  74.1780 128.2492 0078615 344.2240  70.5275 14.39315587876840"}}, "geometry": {"type": "Point", "coordinates": [-68.07741669033274, 43.36605949827727]}}]}